[{"OBJECT_NAME":"ISS OBJECT XX","OBJECT_ID":"1998-067XX","EPOCH":"2026-03-09T12:23:26.768256","MEAN_MOTION":15.75275776,"ECCENTRICITY":0.00069202,"INCLINATION":51.6211,"RA_OF_ASC_NODE":64.9631,"ARG_OF_PERICENTER":81.6711,"MEAN_ANOMALY":278.5073,"EPHEMERIS_TYPE":0,"CLASSIFICATION_TYPE":"U","NORAD_CAT_ID":66911,"ELEMENT_SET_NO":999,"REV_AT_EPOCH":1516,"BSTAR":0.0015443387,"MEAN_MOTION_DOT":0.00244098,"MEAN_MOTION_DDOT":0},{"OBJECT_NAME":"STARLINK-36635","OBJECT_ID":"2026-018N","EPOCH":"2026-03-09T17:01:11.300448","MEAN_MOTION":15.75193066,"ECCENTRICITY":0.00022026,"INCLINATION":97.2834,"RA_OF_ASC_NODE":134.5624,"ARG_OF_PERICENTER":82.9301,"MEAN_ANOMALY":277.2215,"EPHEMERIS_TYPE":0,"CLASSIFICATION_TYPE":"U","NORAD_CAT_ID":67601,"ELEMENT_SET_NO":999,"REV_AT_EPOCH":731,"BSTAR":0.0015091309,"MEAN_MOTION_DOT":0.00231205,"MEAN_MOTION_DDOT":0}]
