ISS OBJECT XX           
1 66911U 98067XX  26068.51628204  .00244098  00000+0  15443-2 0  9998
2 66911  51.6211  64.9631 0006920  81.6711 278.5073 15.75275776 15168
STARLINK-36635          
1 67601U 26018N   26068.70915857  .00231205  00000+0  15091-2 0  9991
2 67601  97.2834 134.5624 0002203  82.9301 277.2215 15.75193066  7310
